     2.100          NAVIGATION                              RINEX VERSION / TYPE
fic2rin                                 11/27/2017 00:07:07 PGM / RUN BY / DATE
                                                            END OF HEADER
 7 17 11 27  0  0  0.0  .274071935564D-03 -.522959453519D-11  .000000000000D+00
     .780000000000D+02  .175312500000D+02  .485805950054D-08  .196546907516D+01
     .884756445885D-06  .110736460192D-01  .617466866970D-05  .515370804787D+04
     .864000000000D+05 -.264495611191D-06 -.261728191867D+01  .111758708954D-07
     .960636175450D+00  .264375000000D+03 -.254608374823D+01 -.825712965688D-08
    -.195365280605D-09  .100000000000D+01  .197700000000D+04  .000000000000D+00
     .240000000000D+01  .000000000000D+00 -.111758708954D-07  .780000000000D+02
     .792060000000D+05  .400000000000D+01
 8 17 11 27  0  0  0.0 -.820406712592D-04 -.136424205266D-11  .000000000000D+00
     .660000000000D+02  .284687500000D+02  .432589447658D-08 -.956776369965D+00
     .152178108692D-05  .291894783732D-02  .669248402119D-05  .515372423744D+04
     .864000000000D+05 -.596046447754D-07 -.553321134812D+00 -.260770320892D-07
     .968328453258D+00  .255875000000D+03 -.628858646510D+00 -.812212403335D-08
     .217866217860D-09  .100000000000D+01  .197700000000D+04  .000000000000D+00
     .240000000000D+01  .000000000000D+00  .558793544769D-08  .660000000000D+02
     .792060000000D+05  .400000000000D+01
 9 17 11 27  0  0  0.0  .476378016174D-03  .443378667114D-11  .000000000000D+00
     .440000000000D+02  .362500000000D+02  .487377444084D-08 -.121531422336D+01
     .194460153580D-05  .104987446684D-02  .856630504131D-05  .515372740173D+04
     .864000000000D+05 -.186264514923D-08  .258801778441D+01 -.931322574615D-08
     .953202515225D+00  .214343750000D+03  .174940200260D+01 -.811855245601D-08
     .231081054025D-09  .100000000000D+01  .197700000000D+04  .000000000000D+00
     .240000000000D+01  .000000000000D+00  .931322574615D-09  .440000000000D+02
     .792060000000D+05  .400000000000D+01
10 17 11 27  0  0  0.0  .118618365377D-03  .727595761418D-11  .000000000000D+00
     .370000000000D+02 -.390000000000D+02  .443768484739D-08  .645518541924D+00
    -.201351940632D-05  .299413595349D-02  .101905316114D-04  .515367287064D+04
     .864000000000D+05  .149011611938D-07  .154937021648D+01  .782310962677D-07
     .960097672379D+00  .181906250000D+03 -.289156594640D+01 -.798140388608D-08
     .357157734196D-10  .100000000000D+01  .197700000000D+04  .000000000000D+00
     .240000000000D+01  .000000000000D+00  .186264514923D-08  .370000000000D+02
     .792060000000D+05  .400000000000D+01
11 17 11 27  0  0  0.0 -.728184357285D-03 -.170530256582D-11  .000000000000D+00
     .360000000000D+02 -.153437500000D+02  .585345810574D-08  .197342099899D+01
    -.100396573544D-05  .168960035080D-01  .340677797794D-05  .515374257660D+04
     .864000000000D+05  .290572643280D-06  .954708326062D-01 -.819563865662D-07
     .903373328142D+00  .278625000000D+03  .172219776671D+01 -.870857703290D-08
     .764317551180D-10  .100000000000D+01  .197700000000D+04  .000000000000D+00
     .240000000000D+01  .000000000000D+00 -.121071934700D-07  .360000000000D+02
     .792060000000D+05  .400000000000D+01
12 17 11 27  0  0  0.0  .363052356988D-03 -.170530256582D-11  .000000000000D+00
     .410000000000D+02  .215625000000D+02  .385337479424D-08  .137701960534D+01
     .105611979961D-05  .660886417609D-02  .838562846184D-05  .515368849754D+04
     .864000000000D+05 -.137835741043D-06 -.152849733936D+01  .633299350739D-07
     .987876911141D+00  .232781250000D+03  .907896328521D+00 -.782175437889D-08
    -.208222959036D-09  .100000000000D+01  .197700000000D+04  .000000000000D+00
     .240000000000D+01  .000000000000D+00 -.125728547573D-07  .410000000000D+02
     .792060000000D+05  .400000000000D+01
13 17 11 27  0  0  0.0 -.943150371313D-04 -.341060513165D-12  .000000000000D+00
     .350000000000D+02  .429375000000D+02  .449554440033D-08 -.297815680629D+01
     .209733843803D-05  .363696122076D-02  .784918665886D-05  .515365753174D+04
     .864000000000D+05  .521540641785D-07  .271694233361D+01  .353902578354D-07
     .969181514437D+00  .231625000000D+03  .167340010950D+01 -.793961643118D-08
     .180364655769D-09  .100000000000D+01  .197700000000D+04  .000000000000D+00
     .240000000000D+01  .000000000000D+00 -.116415321827D-07  .350000000000D+02
     .792060000000D+05  .400000000000D+01
14 17 11 27  0  0  0.0 -.894069671631D-04 -.795807864051D-12  .000000000000D+00
     .390000000000D+02  .442812500000D+02  .465126517244D-08 -.178263090525D+01
     .239349901676D-05  .925400760025D-02  .797957181931D-05  .515371391678D+04
     .864000000000D+05  .216066837311D-06  .267627680832D+01  .502914190292D-07
     .961689988488D+00  .223406250000D+03 -.195191685077D+01 -.794283085079D-08
     .246795994329D-09  .100000000000D+01  .197700000000D+04  .000000000000D+00
     .240000000000D+01  .000000000000D+00 -.977888703346D-08  .390000000000D+02
     .792060000000D+05  .400000000000D+01
15 17 11 27  0  0  0.0 -.357289332896D-03 -.113686837722D-12  .000000000000D+00
     .380000000000D+02  .382187500000D+02  .537093800684D-08 -.230830416257D+01
     .165775418282D-05  .996496563312D-02  .815093517303D-05  .515365075493D+04
     .864000000000D+05  .745058059692D-07  .252187030646D+01 -.111758708954D-06
     .928732704371D+00  .204781250000D+03  .639389314549D+00 -.831356057888D-08
     .298583865788D-09  .100000000000D+01  .197700000000D+04  .000000000000D+00
     .240000000000D+01  .000000000000D+00 -.107102096081D-07  .380000000000D+02
     .792060000000D+05  .400000000000D+01
16 17 11 27  0  0  0.0  .360440462828D-04 -.341060513165D-12  .000000000000D+00
     .940000000000D+02  .178125000000D+02  .384051711581D-08 -.586218275441D+00
     .912696123123D-06  .948981603142D-02  .910833477974D-05  .515354418373D+04
     .864000000000D+05  .147148966789D-06 -.150959807186D+01  .949949026108D-07
     .988331755779D+00  .217531250000D+03  .447811815400D+00 -.785104131310D-08
    -.234295473633D-09  .100000000000D+01  .197700000000D+04  .000000000000D+00
     .240000000000D+01  .000000000000D+00 -.107102096081D-07  .940000000000D+02
     .792060000000D+05  .400000000000D+01
17 17 11 27  0  0  0.0 -.141922850162D-03  .250111042988D-11  .000000000000D+00
     .350000000000D+02  .221562500000D+02  .407695553585D-08 -.148883764048D+01
     .130571424961D-05  .121865137480D-01  .614859163761D-05  .515371985626D+04
     .864000000000D+05  .184401869774D-06 -.493284909354D+00  .266358256340D-06
     .981689513754D+00  .273187500000D+03 -.182736320675D+01 -.791532970525D-08
     .111433213069D-09  .100000000000D+01  .197700000000D+04  .000000000000D+00
     .240000000000D+01  .000000000000D+00 -.111758708954D-07  .350000000000D+02
     .792060000000D+05  .400000000000D+01
18 17 11 27  0  0  0.0  .633066520095D-03  .341060513165D-12  .000000000000D+00
     .380000000000D+02 -.387500000000D+02  .535022285826D-08  .357888717787D-01
    -.206194818020D-05  .181944656651D-01  .987574458122D-05  .515364203835D+04
     .864000000000D+05 -.320374965668D-06  .150061666771D+01  .134110450745D-06
     .925782231209D+00  .174781250000D+03 -.177068783516D+01 -.870286250916D-08
     .325013538118D-10  .100000000000D+01  .197700000000D+04  .000000000000D+00
     .240000000000D+01  .000000000000D+00 -.111758708954D-07  .380000000000D+02
     .792060000000D+05  .400000000000D+01
19 17 11 27  0  0  0.0 -.473348889500D-03  .216004991671D-11  .000000000000D+00
     .770000000000D+02  .119687500000D+02  .413767235066D-08  .149737149117D+01
     .452622771263D-06  .981031137053D-02  .638887286186D-05  .515368841362D+04
     .864000000000D+05 -.189989805222D-06 -.445904511084D+00 -.819563865662D-07
     .979090039990D+00  .272406250000D+03  .109682175761D+01 -.804212070089D-08
     .757174396496D-10  .100000000000D+01  .197700000000D+04  .000000000000D+00
     .240000000000D+01  .000000000000D+00 -.153668224812D-07  .770000000000D+02
     .792060000000D+05  .400000000000D+01
20 17 11 27  0  0  0.0  .493913423270D-03  .113686837722D-11  .000000000000D+00
     .340000000000D+02 -.380937500000D+02  .518628745826D-08 -.252724537615D+01
    -.197812914848D-05  .465113588143D-02  .887550413609D-05  .515376050949D+04
     .864000000000D+05  .298023223877D-07  .144951032681D+01  .428408384323D-07
     .927193199604D+00  .184187500000D+03  .172747004594D+01 -.826498712703D-08
     .660741808263D-10  .100000000000D+01  .197700000000D+04  .000000000000D+00
     .240000000000D+01  .000000000000D+00 -.838190317154D-08  .340000000000D+02
     .792060000000D+05  .400000000000D+01
21 17 11 27  0  0  0.0 -.458365306258D-03  .363797880709D-11  .000000000000D+00
     .143000000000D+03 -.549062500000D+02  .523486091011D-08  .952111036435D+00
    -.312738120556D-05  .241230226820D-01  .609643757343D-05  .515356016350D+04
     .864000000000D+05 -.422820448875D-06  .461000277895D+00 -.236555933952D-06
     .941853296245D+00  .261156250000D+03 -.162264841359D+01 -.887572685251D-08
    -.885751180806D-10  .100000000000D+01  .197700000000D+04  .000000000000D+00
     .240000000000D+01  .000000000000D+00 -.977888703346D-08  .143000000000D+03
     .792060000000D+05  .400000000000D+01
22 17 11 27  0  0  0.0 -.202570576221D-03 -.128466126625D-10  .000000000000D+00
     .950000000000D+02 -.551250000000D+02  .517485841077D-08 -.212284579373D+01
    -.279396772385D-05  .714047183283D-02  .925548374653D-05  .515366635513D+04
     .864000000000D+05  .145286321640D-06  .150013191957D+01  .428408384323D-07
     .923896257702D+00  .175500000000D+03 -.165323029911D+01 -.824391482071D-08
     .596453416107D-10  .100000000000D+01  .197700000000D+04  .000000000000D+00
     .240000000000D+01  .000000000000D+00 -.176951289177D-07  .950000000000D+02
     .792060000000D+05  .400000000000D+01
